LEMUR-1                 
1 40044U 14033AL  26116.95358873  .00002177  00000+0  25663-3 0  9998
2 40044  97.7810 267.9242 0047268 245.4992 114.1290 14.85016507637865
LEMUR-2-GREENBERG       
1 42837U 17042N   26116.76329446  .00020918  00000+0  72759-3 0  9997
2 42837  97.3809 297.6947 0009405 179.0599 181.0660 15.29694725480525
LEMUR-2-ANDIS           
1 42838U 17042P   26116.77196362  .00028382  00000+0  89689-3 0  9991
2 42838  97.3678 297.7257 0009416 182.3468 177.7732 15.32730788480570
LEMUR-2-MONSON          
1 42839U 17042Q   26116.46684454  .00016923  00000+0  64897-3 0  9994
2 42839  97.4068 297.4453 0007345 167.1114 193.0314 15.26543343480274
LEMUR-2-FURIAUS         
1 42840U 17042R   26116.45703215  .00026922  00000+0  97165-3 0  9996
2 42840  97.3763 295.4658 0006872 238.5591 121.4977 15.28454520480302
LEMUR-2-PETERG          
1 42841U 17042S   26116.78865279  .00023355  00000+0  76094-3 0  9997
2 42841  97.3997 301.8230 0004805 151.6513 208.4991 15.31822432480568
LEMUR-2-DEMBITZ         
1 42842U 17042T   26116.48095364  .00018600  00000+0  66838-3 0  9997
2 42842  97.3825 298.4653 0006928 189.8765 170.2340 15.28673726480446
LEMUR-2-ZACHARY         
1 42845U 17042W   26116.80131908  .00050270  00000+0  10267-2 0  9994
2 42845  97.3643 307.5069 0004141 186.4814 173.6383 15.46006597481253
LEMUR-2-KADI            
1 43184U 18014E   26116.72931554  .00231535  00000+0  14107-2 0  9999
2 43184  97.4564  44.5917 0006882  96.1671 264.0379 15.76751046452926
LEMUR-2-AMANDA-SVANTE   
1 48269U 21034B   26116.71714817  .00036494  00000+0  12057-2 0  9993
2 48269  97.5782 193.7685 0003966  97.1781 262.9911 15.31284595273178
LEMUR-2-SPECIAL-K       
1 48273U 21034F   26116.83571360  .00095888  00000+0  15220-2 0  9992
2 48273  97.5660 200.4916 0002276 162.5711 197.5620 15.53021069273690
LEMUR-2-EMBRIONOVIS     
1 56970U 23084AQ  26116.83064533  .00016001  00000+0  45486-3 0  9999
2 56970  97.6215 259.1351 0010110 134.0585 226.1492 15.36198952159790
LEMUR-2-MANO            
1 57390U 23100E   26116.32928694  .00371430  00000+0  19477-2 0  9996
2 57390  99.4435 155.4001 0013706 172.5851 187.5615 15.79650256153954
LEMUR-2-DEVERILL-M-T    
1 57391U 23100F   26116.78834417  .00031219  00000+0  85494-3 0  9997
2 57391  99.4524 140.8206 0006793 199.9555 160.1418 15.37266676153345
LEMUR-2-BASS            
1 58259U 23174D   26116.75770479  .00019852  00000+0  47570-3 0  9998
2 58259  97.3845 200.8215 0006486   6.7594 353.3739 15.41432755137438
LEMUR-2-JK0903EM1407    
1 58336U 23174CJ  26116.76672968  .00029981  00000+0  55191-3 0  9991
2 58336  97.3894 205.9108 0003701 291.3458  68.7398 15.49128009137769
