[{"OBJECT_NAME":"LEMUR-1","OBJECT_ID":"2014-033AL","EPOCH":"2026-04-26T22:53:10.066272","MEAN_MOTION":14.85016507,"ECCENTRICITY":0.00472689,"INCLINATION":97.781,"RA_OF_ASC_NODE":267.9242,"ARG_OF_PERICENTER":245.4992,"MEAN_ANOMALY":114.129,"EPHEMERIS_TYPE":0,"CLASSIFICATION_TYPE":"U","NORAD_CAT_ID":40044,"ELEMENT_SET_NO":999,"REV_AT_EPOCH":63786,"BSTAR":0.00025662746,"MEAN_MOTION_DOT":2.177e-5,"MEAN_MOTION_DDOT":0},{"OBJECT_NAME":"LEMUR-2-GREENBERG","OBJECT_ID":"2017-042N","EPOCH":"2026-04-26T18:19:08.641344","MEAN_MOTION":15.29694725,"ECCENTRICITY":0.00094056,"INCLINATION":97.3809,"RA_OF_ASC_NODE":297.6947,"ARG_OF_PERICENTER":179.0599,"MEAN_ANOMALY":181.066,"EPHEMERIS_TYPE":0,"CLASSIFICATION_TYPE":"U","NORAD_CAT_ID":42837,"ELEMENT_SET_NO":999,"REV_AT_EPOCH":48052,"BSTAR":0.00072759485,"MEAN_MOTION_DOT":0.00020918,"MEAN_MOTION_DDOT":0},{"OBJECT_NAME":"LEMUR-2-ANDIS","OBJECT_ID":"2017-042P","EPOCH":"2026-04-26T18:31:37.656768","MEAN_MOTION":15.32730788,"ECCENTRICITY":0.00094161,"INCLINATION":97.3678,"RA_OF_ASC_NODE":297.7257,"ARG_OF_PERICENTER":182.3468,"MEAN_ANOMALY":177.7732,"EPHEMERIS_TYPE":0,"CLASSIFICATION_TYPE":"U","NORAD_CAT_ID":42838,"ELEMENT_SET_NO":999,"REV_AT_EPOCH":48057,"BSTAR":0.00089689046,"MEAN_MOTION_DOT":0.00028382,"MEAN_MOTION_DDOT":0},{"OBJECT_NAME":"LEMUR-2-MONSON","OBJECT_ID":"2017-042Q","EPOCH":"2026-04-26T11:12:15.368256","MEAN_MOTION":15.26543343,"ECCENTRICITY":0.00073451,"INCLINATION":97.4068,"RA_OF_ASC_NODE":297.4453,"ARG_OF_PERICENTER":167.1114,"MEAN_ANOMALY":193.0314,"EPHEMERIS_TYPE":0,"CLASSIFICATION_TYPE":"U","NORAD_CAT_ID":42839,"ELEMENT_SET_NO":999,"REV_AT_EPOCH":48027,"BSTAR":0.00064896806,"MEAN_MOTION_DOT":0.00016923,"MEAN_MOTION_DDOT":0},{"OBJECT_NAME":"LEMUR-2-FURIAUS","OBJECT_ID":"2017-042R","EPOCH":"2026-04-26T10:58:07.577760","MEAN_MOTION":15.2845452,"ECCENTRICITY":0.0006872,"INCLINATION":97.3763,"RA_OF_ASC_NODE":295.4658,"ARG_OF_PERICENTER":238.5591,"MEAN_ANOMALY":121.4977,"EPHEMERIS_TYPE":0,"CLASSIFICATION_TYPE":"U","NORAD_CAT_ID":42840,"ELEMENT_SET_NO":999,"REV_AT_EPOCH":48030,"BSTAR":0.00097164821,"MEAN_MOTION_DOT":0.00026922,"MEAN_MOTION_DDOT":0},{"OBJECT_NAME":"LEMUR-2-PETERG","OBJECT_ID":"2017-042S","EPOCH":"2026-04-26T18:55:39.601056","MEAN_MOTION":15.31822432,"ECCENTRICITY":0.00048055,"INCLINATION":97.3997,"RA_OF_ASC_NODE":301.823,"ARG_OF_PERICENTER":151.6513,"MEAN_ANOMALY":208.4991,"EPHEMERIS_TYPE":0,"CLASSIFICATION_TYPE":"U","NORAD_CAT_ID":42841,"ELEMENT_SET_NO":999,"REV_AT_EPOCH":48056,"BSTAR":0.00076093703,"MEAN_MOTION_DOT":0.00023355,"MEAN_MOTION_DDOT":0},{"OBJECT_NAME":"LEMUR-2-DEMBITZ","OBJECT_ID":"2017-042T","EPOCH":"2026-04-26T11:32:34.394496","MEAN_MOTION":15.28673726,"ECCENTRICITY":0.00069284,"INCLINATION":97.3825,"RA_OF_ASC_NODE":298.4653,"ARG_OF_PERICENTER":189.8765,"MEAN_ANOMALY":170.234,"EPHEMERIS_TYPE":0,"CLASSIFICATION_TYPE":"U","NORAD_CAT_ID":42842,"ELEMENT_SET_NO":999,"REV_AT_EPOCH":48044,"BSTAR":0.00066837866,"MEAN_MOTION_DOT":0.000186,"MEAN_MOTION_DDOT":0},{"OBJECT_NAME":"LEMUR-2-ZACHARY","OBJECT_ID":"2017-042W","EPOCH":"2026-04-26T19:13:53.968512","MEAN_MOTION":15.46006597,"ECCENTRICITY":0.00041412,"INCLINATION":97.3643,"RA_OF_ASC_NODE":307.5069,"ARG_OF_PERICENTER":186.4814,"MEAN_ANOMALY":173.6383,"EPHEMERIS_TYPE":0,"CLASSIFICATION_TYPE":"U","NORAD_CAT_ID":42845,"ELEMENT_SET_NO":999,"REV_AT_EPOCH":48125,"BSTAR":0.0010266974,"MEAN_MOTION_DOT":0.0005027,"MEAN_MOTION_DDOT":0},{"OBJECT_NAME":"LEMUR-2-KADI","OBJECT_ID":"2018-014E","EPOCH":"2026-04-26T17:30:12.862656","MEAN_MOTION":15.76751046,"ECCENTRICITY":0.00068827,"INCLINATION":97.4564,"RA_OF_ASC_NODE":44.5917,"ARG_OF_PERICENTER":96.1671,"MEAN_ANOMALY":264.0379,"EPHEMERIS_TYPE":0,"CLASSIFICATION_TYPE":"U","NORAD_CAT_ID":43184,"ELEMENT_SET_NO":999,"REV_AT_EPOCH":45292,"BSTAR":0.001410693,"MEAN_MOTION_DOT":0.00231535,"MEAN_MOTION_DDOT":0},{"OBJECT_NAME":"LEMUR-2-AMANDA-SVANTE","OBJECT_ID":"2021-034B","EPOCH":"2026-04-26T17:12:41.601888","MEAN_MOTION":15.31284595,"ECCENTRICITY":0.00039662,"INCLINATION":97.5782,"RA_OF_ASC_NODE":193.7685,"ARG_OF_PERICENTER":97.1781,"MEAN_ANOMALY":262.9911,"EPHEMERIS_TYPE":0,"CLASSIFICATION_TYPE":"U","NORAD_CAT_ID":48269,"ELEMENT_SET_NO":999,"REV_AT_EPOCH":27317,"BSTAR":0.0012056806,"MEAN_MOTION_DOT":0.00036494,"MEAN_MOTION_DDOT":0},{"OBJECT_NAME":"LEMUR-2-SPECIAL-K","OBJECT_ID":"2021-034F","EPOCH":"2026-04-26T20:03:25.655040","MEAN_MOTION":15.53021069,"ECCENTRICITY":0.00022769,"INCLINATION":97.566,"RA_OF_ASC_NODE":200.4916,"ARG_OF_PERICENTER":162.5711,"MEAN_ANOMALY":197.562,"EPHEMERIS_TYPE":0,"CLASSIFICATION_TYPE":"U","NORAD_CAT_ID":48273,"ELEMENT_SET_NO":999,"REV_AT_EPOCH":27369,"BSTAR":0.0015219776,"MEAN_MOTION_DOT":0.00095888,"MEAN_MOTION_DDOT":0},{"OBJECT_NAME":"LEMUR-2-EMBRIONOVIS","OBJECT_ID":"2023-084AQ","EPOCH":"2026-04-26T19:56:07.756512","MEAN_MOTION":15.36198952,"ECCENTRICITY":0.00101103,"INCLINATION":97.6215,"RA_OF_ASC_NODE":259.1351,"ARG_OF_PERICENTER":134.0585,"MEAN_ANOMALY":226.1492,"EPHEMERIS_TYPE":0,"CLASSIFICATION_TYPE":"U","NORAD_CAT_ID":56970,"ELEMENT_SET_NO":999,"REV_AT_EPOCH":15979,"BSTAR":0.00045485677,"MEAN_MOTION_DOT":0.00016001,"MEAN_MOTION_DDOT":0},{"OBJECT_NAME":"LEMUR-2-MANO","OBJECT_ID":"2023-100E","EPOCH":"2026-04-26T07:54:10.391616","MEAN_MOTION":15.79650256,"ECCENTRICITY":0.0013706,"INCLINATION":99.4435,"RA_OF_ASC_NODE":155.4001,"ARG_OF_PERICENTER":172.5851,"MEAN_ANOMALY":187.5615,"EPHEMERIS_TYPE":0,"CLASSIFICATION_TYPE":"U","NORAD_CAT_ID":57390,"ELEMENT_SET_NO":999,"REV_AT_EPOCH":15395,"BSTAR":0.0019476713,"MEAN_MOTION_DOT":0.0037143,"MEAN_MOTION_DDOT":0},{"OBJECT_NAME":"LEMUR-2-DEVERILL-M-T","OBJECT_ID":"2023-100F","EPOCH":"2026-04-26T18:55:12.936288","MEAN_MOTION":15.37266676,"ECCENTRICITY":0.0006793,"INCLINATION":99.4524,"RA_OF_ASC_NODE":140.8206,"ARG_OF_PERICENTER":199.9555,"MEAN_ANOMALY":160.1418,"EPHEMERIS_TYPE":0,"CLASSIFICATION_TYPE":"U","NORAD_CAT_ID":57391,"ELEMENT_SET_NO":999,"REV_AT_EPOCH":15334,"BSTAR":0.00085494266,"MEAN_MOTION_DOT":0.00031219,"MEAN_MOTION_DDOT":0},{"OBJECT_NAME":"LEMUR-2-BASS","OBJECT_ID":"2023-174D","EPOCH":"2026-04-26T18:11:05.693856","MEAN_MOTION":15.41432755,"ECCENTRICITY":0.0006486,"INCLINATION":97.3845,"RA_OF_ASC_NODE":200.8215,"ARG_OF_PERICENTER":6.7594,"MEAN_ANOMALY":353.3739,"EPHEMERIS_TYPE":0,"CLASSIFICATION_TYPE":"U","NORAD_CAT_ID":58259,"ELEMENT_SET_NO":999,"REV_AT_EPOCH":13743,"BSTAR":0.00047570229,"MEAN_MOTION_DOT":0.00019852,"MEAN_MOTION_DDOT":0},{"OBJECT_NAME":"LEMUR-2-JK0903EM1407","OBJECT_ID":"2023-174CJ","EPOCH":"2026-04-26T18:24:05.444352","MEAN_MOTION":15.49128009,"ECCENTRICITY":0.00037016,"INCLINATION":97.3894,"RA_OF_ASC_NODE":205.9108,"ARG_OF_PERICENTER":291.3458,"MEAN_ANOMALY":68.7398,"EPHEMERIS_TYPE":0,"CLASSIFICATION_TYPE":"U","NORAD_CAT_ID":58336,"ELEMENT_SET_NO":999,"REV_AT_EPOCH":13776,"BSTAR":0.00055190718,"MEAN_MOTION_DOT":0.00029981,"MEAN_MOTION_DDOT":0}]
